[{"OBJECT_NAME":"COSMO-SKYMED 2","OBJECT_ID":"2007-059A","EPOCH":"2026-03-09T23:42:47.291040","MEAN_MOTION":14.82166446,"ECCENTRICITY":0.00012683,"INCLINATION":97.8865,"RA_OF_ASC_NODE":254.0198,"ARG_OF_PERICENTER":84.565,"MEAN_ANOMALY":275.5708,"EPHEMERIS_TYPE":0,"CLASSIFICATION_TYPE":"U","NORAD_CAT_ID":32376,"ELEMENT_SET_NO":999,"REV_AT_EPOCH":98730,"BSTAR":9.1071047e-5,"MEAN_MOTION_DOT":6.73e-6,"MEAN_MOTION_DDOT":0},{"OBJECT_NAME":"FENGYUN 1C DEB","OBJECT_ID":"1999-025DCC","EPOCH":"2026-03-06T20:17:15.373248","MEAN_MOTION":14.96028569,"ECCENTRICITY":0.01060199,"INCLINATION":97.3493,"RA_OF_ASC_NODE":89.8611,"ARG_OF_PERICENTER":314.0813,"MEAN_ANOMALY":45.1717,"EPHEMERIS_TYPE":0,"CLASSIFICATION_TYPE":"U","NORAD_CAT_ID":32464,"ELEMENT_SET_NO":999,"REV_AT_EPOCH":62048,"BSTAR":0.0018930434,"MEAN_MOTION_DOT":0.00023806,"MEAN_MOTION_DDOT":0}]
